AO-85
1 40967U 15058D   15302.30036689  .00001904  00000-0  21334-3 0 00240
2 40967 064.7795 228.7545 0217878 275.5719 236.2101 14.74335309002925